NORAD_CAT_ID,OBJECT_NAME,OBJECT_TYPE,EPOCH,MEAN_MOTION,ECCENTRICITY,INCLINATION,RA_OF_ASC_NODE,ARG_OF_PERICENTER,MEAN_ANOMALY,BSTAR,MEAN_MOTION_DOT,MEAN_MOTION_DDOT,TLE_LINE0,TLE_LINE1,TLE_LINE2,SEMIMAJOR_AXIS,PERIOD,APOGEE,PERIGEE,DECAYED
51735.0,STARLINK-3517,PAYLOAD,2022-05-09 22:00:00,15.22373076,0.0001776,53.2173,123.2886,35.088,339.5647,-0.03308,-0.00721229,0.0,0 STARLINK-3517,1 51735U 22016X   22129.91667824 -.00721229  00000-0 -33080-1 0  9991,2 51735  53.2173 123.2886 0001776  35.0880 339.5647 15.22373076  3645,6876.821999999999,94.589,499.908,497.466,0.0
51735.0,STARLINK-3517,PAYLOAD,2022-05-10 08:00:01,15.21737755,0.0002218,53.2175,121.3851,30.5033,108.4843,-0.033877,-0.00724647,0.0,0 STARLINK-3517,1 51735U 22016X   22130.33334491 -.00724647  00000-0 -33877-1 0  9991,2 51735  53.2175 121.3851 0002218  30.5033 108.4843 15.21737755 13425,6878.736,94.629,502.127,499.075,0.0
51735.0,STARLINK-3517,PAYLOAD,2022-05-10 14:00:01,15.21355222,0.0001603,53.2173,120.2419,42.335,26.7958,-0.03425,-0.00724337,0.0,0 STARLINK-3517,1 51735U 22016X   22130.58334491 -.00724337  00000-0 -34250-1 0  9990,2 51735  53.2173 120.2419 0001603  42.3350  26.7958 15.21355222  3659,6879.889,94.652,502.857,500.651,0.0
51735.0,STARLINK-3517,PAYLOAD,2022-05-10 18:00:00,15.21100425,0.0001635,53.2175,119.4793,44.0964,218.2716,-0.034484,-0.00723865,0.0,0 STARLINK-3517,1 51735U 22016X   22130.75001157 -.00723865  00000-0 -34484-1 0  9993,2 51735  53.2175 119.4793 0001635  44.0964 218.2716 15.21100425  3632,6880.656999999997,94.668,503.647,501.397,0.0
51735.0,STARLINK-3517,PAYLOAD,2022-05-11 22:00:00,15.19315421,0.0001829,53.2174,114.1586,43.644,127.0932,-0.036346,-0.00724069,0.0,0 STARLINK-3517,1 51735U 22016X   22131.91667824 -.00724069  00000-0 -36346-1 0  9997,2 51735  53.2174 114.1586 0001829  43.6440 127.0932 15.19315421 13664,6886.045,94.78,509.17,506.651,0.0
51735.0,STARLINK-3517,PAYLOAD,2022-05-12 14:00:01,15.1829542,0.0002119,53.2173,111.1258,33.261,184.6022,-0.037451,-0.007243,0.0,0 STARLINK-3517,1 51735U 22016X   22132.58334491 -.00724300  00000-0 -37451-1 0  9998,2 51735  53.2173 111.1258 0002119  33.2610 184.6022 15.18295420  1305,6889.129,94.843,512.4540000000002,509.534,0.0
51735.0,STARLINK-3517,PAYLOAD,2022-05-12 22:00:00,15.177848,0.0001828,53.2174,109.6095,43.244,197.2638,-0.037911,-0.00722529,0.0,0 STARLINK-3517,1 51735U 22016X   22132.91667824 -.00722529  00000-0 -37911-1 0  9996,2 51735  53.2174 109.6095 0001828  43.2440 197.2638 15.17784800  1302,6890.674,94.875,513.799,511.279,0.0
51735.0,STARLINK-3517,PAYLOAD,2022-05-13 06:00:00,15.17274299,0.0002091,53.2174,108.0974,34.9127,227.6254,-0.038459,-0.007223,0.0,0 STARLINK-3517,1 51735U 22016X   22133.25001157 -.00722300  00000-0 -38459-1 0  9990,2 51735  53.2174 108.0974 0002091  34.9127 227.6254 15.17274299 13865,6892.22,94.907,515.526,512.643,0.0
51735.0,STARLINK-3517,PAYLOAD,2022-05-13 14:00:01,15.16766293,0.0001613,53.2173,106.5839,48.497,235.4595,-0.039234,-0.00725843,0.0,0 STARLINK-3517,1 51735U 22016X   22133.58334491 -.00725843  00000-0 -39234-1 0  9993,2 51735  53.2173 106.5839 0001613  48.4970 235.4595 15.16766293  1302,6893.7580000000025,94.939,516.735,514.511,0.0
51735.0,STARLINK-3517,PAYLOAD,2022-05-13 22:00:00,15.16253845,0.0001569,53.2175,105.0712,51.285,253.4782,-0.039503,-0.00720527,0.0,0 STARLINK-3517,1 51735U 22016X   22133.91667824 -.00720527  00000-0 -39503-1 0  9992,2 51735  53.2175 105.0712 0001569  51.2850 253.4782 15.16253845  1309,6895.312,94.971,518.258,516.095,0.0
51735.0,STARLINK-3517,PAYLOAD,2022-05-14 14:00:01,15.15236262,0.0001634,53.2173,102.0526,41.9705,302.5645,-0.040986,-0.00725776,0.0,0 STARLINK-3517,1 51735U 22016X   22134.58334491 -.00725776  00000-0 -40986-1 0  9995,2 51735  53.2173 102.0526 0001634  41.9705 302.5645 15.15236262 14069,6898.398,95.035,521.391,519.136,0.0
51735.0,STARLINK-3517,PAYLOAD,2022-05-14 22:00:00,15.1472357,0.0001737,53.2175,100.5439,39.4221,324.0812,-0.04123,-0.00719954,0.0,0 STARLINK-3517,1 51735U 22016X   22134.91667824 -.00719954  00000-0 -41230-1 0  9995,2 51735  53.2175 100.5439 0001737  39.4221 324.0812 15.14723570  1306,6899.955,95.067,523.018,520.621,0.0
51735.0,STARLINK-3517,PAYLOAD,2022-05-15 14:00:01,15.1370569,0.0001661,53.2174,97.5319,40.7763,358.8854,-0.042733,-0.00724634,0.0,0 STARLINK-3517,1 51735U 22016X   22135.58335648 -.00724634  00000-0 -42733-1 0  9995,2 51735  53.2174  97.5319 0001661  40.7763 358.8854 15.13705690 14227,6903.0480000000025,95.131,526.059,523.766,0.0
51735.0,STARLINK-3517,PAYLOAD,2022-05-15 22:00:00,15.13193708,0.000192,53.2175,96.027,33.8466,22.8816,-0.043074,-0.00720285,0.0,0 STARLINK-3517,1 51735U 22016X   22135.91667824 -.00720285  00000-0 -43074-1 0  9993,2 51735  53.2175  96.0270 0001920  33.8466  22.8816 15.13193708  1301,6904.605,95.163,527.795,525.144,0.0
51735.0,STARLINK-3517,PAYLOAD,2022-05-16 14:00:01,15.1217517,0.0001737,53.2175,93.0221,40.782,48.365,-0.04453,-0.00723375,0.0,0 STARLINK-3517,1 51735U 22016X   22136.58334491 -.00723375  00000-0 -44530-1 0  9999,2 51735  53.2175  93.0221 0001737  40.7820  48.3650 15.12175170  1302,6907.705,95.227,530.77,528.37,0.0
51735.0,STARLINK-3517,PAYLOAD,2022-05-16 22:00:00,15.11663984,0.0001918,53.2176,91.5208,37.5461,66.892,-0.044997,-0.00720789,0.0,0 STARLINK-3517,1 51735U 22016X   22136.91667824 -.00720789  00000-0 -44997-1 0  9998,2 51735  53.2176  91.5208 0001918  37.5461  66.8920 15.11663984 14423,6909.262,95.259,532.452,529.802,0.0
51735.0,STARLINK-3517,PAYLOAD,2022-05-17 14:00:01,15.10644821,0.0001857,53.2175,88.5228,40.6523,92.5909,-0.046404,-0.00722388,0.0,0 STARLINK-3517,1 51735U 22016X   22137.58335648 -.00722388  00000-0 -46404-1 0  9990,2 51735  53.2175  88.5228 0001857  40.6523  92.5909 15.10644821  1300,6912.369000000002,95.324,535.518,532.951,0.0
51735.0,STARLINK-3517,PAYLOAD,2022-05-17 20:00:01,15.10260837,0.0001764,53.2175,87.3991,39.4669,13.8607,-0.046706,-0.00719573,0.0,0 STARLINK-3517,1 51735U 22016X   22137.83334491 -.00719573  00000-0 -46706-1 0  9990,2 51735  53.2175  87.3991 0001764  39.4669  13.8607 15.10260837 14562,6913.541,95.348,536.625,534.186,0.0
51735.0,STARLINK-3517,PAYLOAD,2022-05-17 22:00:01,15.10134154,0.0001902,53.2177,87.0252,41.0531,105.6426,-0.046973,-0.00721057,0.0,0 STARLINK-3517,1 51735U 22016X   22137.91668981 -.00721057  00000-0 -46973-1 0  9999,2 51735  53.2177  87.0252 0001902  41.0531 105.6426 15.10134154  1301,6913.928000000001,95.356,537.1080000000002,534.477,0.0
51735.0,STARLINK-3517,PAYLOAD,2022-05-18 12:00:00,15.09131459,0.0001657,53.2174,84.4068,45.9162,32.8038,-0.0265,-0.00402296,0.0,0 STARLINK-3517,1 51735U 22016X   22138.50001157 -.00402296  00000-0 -26500-1 0  9996,2 51735  53.2174  84.4068 0001657  45.9162  32.8038 15.09131459 14660,6916.99,95.419,540.001,537.7090000000002,0.0
51735.0,STARLINK-3517,PAYLOAD,2022-05-18 14:00:01,15.08966374,0.0001684,53.2175,84.0323,45.8098,125.9123,-0.012464,-0.0019403,0.0,0 STARLINK-3517,1 51735U 22016X   22138.58334491 -.00194030  00000-0 -12464-1 0  9992,2 51735  53.2175  84.0323 0001684  45.8098 125.9123 15.08966374  1305,6917.494000000002,95.43,540.524,538.194,0.0
51735.0,STARLINK-3517,PAYLOAD,2022-05-18 20:00:01,15.08836757,0.000175,53.2175,82.9097,44.525,45.959,6.755199999999999e-05,7.87e-06,0.0,0 STARLINK-3517,1 51735U 22016X   22138.83334491  .00000787  00000-0  67552-4 0  9994,2 51735  53.2175  82.9097 0001750  44.5250  45.9590 15.08836757 14719,6917.89,95.438,540.966,538.545,0.0
51735.0,STARLINK-3517,PAYLOAD,2022-05-18 22:00:00,15.0883755,0.0001818,53.2177,82.5362,44.4233,138.9583,-5.242e-05,-1.122e-05,0.0,0 STARLINK-3517,1 51735U 22016X   22138.91667824 -.00001122  00000-0 -52420-4 0  9996,2 51735  53.2177  82.5362 0001818  44.4233 138.9583 15.08837550  1305,6917.888000000001,95.438,541.011,538.495,0.0
51735.0,STARLINK-3517,PAYLOAD,2022-05-19 06:00:00,15.08863951,0.0001629999999999,53.2189,81.0306,38.0761,157.0452,0.0046668,0.00074822,0.0,0 STARLINK-3517,1 51735U 22016X   22139.25001157  .00074822  00000-0  46668-2 0  9995,2 51735  53.2189  81.0306 0001630  38.0761 157.0452 15.08863951 14773,6917.807,95.436,540.8,538.545,0.0
51735.0,STARLINK-3517,PAYLOAD,2022-05-19 14:00:01,15.08924321,0.0001619,53.2186,79.5327,45.8913,160.8962,-0.0096445,-0.00150931,0.0,0 STARLINK-3517,1 51735U 22016X   22139.58335648 -.00150931  00000-0 -96445-2 0  9992,2 51735  53.2186  79.5327 0001619  45.8913 160.8962 15.08924321  1309,6917.623000000001,95.432,540.6080000000002,538.368,0.0
51735.0,STARLINK-3517,PAYLOAD,2022-05-19 22:00:00,15.08825649,0.0001802,53.2187,78.0367,54.291,164.0794,-0.0039838,-0.00063111,0.0,0 STARLINK-3517,1 51735U 22016X   22139.91667824 -.00063111  00000-0 -39838-2 0  9999,2 51735  53.2187  78.0367 0001802  54.2910 164.0794 15.08825649 14871,6917.924,95.438,541.036,538.543,0.0
51735.0,STARLINK-3517,PAYLOAD,2022-05-20 14:00:01,15.08816819,0.0001842,53.2183,75.044,53.1347,188.3293,0.0017284,0.00027309,0.0,0 STARLINK-3517,1 51735U 22016X   22140.58334491  .00027309  00000-0  17284-2 0  9993,2 51735  53.2183  75.0440 0001842  53.1347 188.3293 15.08816819 14975,6917.951,95.439,541.091,538.5419999999998,0.0
51735.0,STARLINK-3517,PAYLOAD,2022-05-20 22:00:00,15.08861737,0.0001849,53.2183,73.5482,56.4,196.6361,-0.0010828,-0.0001749,0.0,0 STARLINK-3517,1 51735U 22016X   22140.91667824 -.00017490  00000-0 -10828-2 0  9998,2 51735  53.2183  73.5482 0001849  56.4000 196.6361 15.08861737  1303,6917.814,95.436,540.9580000000002,538.4,0.0
51735.0,STARLINK-3517,PAYLOAD,2022-05-21 06:00:00,15.08824483,0.0001951,53.2183,72.0532,48.1987,216.4475,0.0023103,0.00036657,0.0,0 STARLINK-3517,1 51735U 22016X   22141.25001157  .00036657  00000-0  23103-2 0  9991,2 51735  53.2183  72.0532 0001951  48.1987 216.4475 15.08824483  1303,6917.928000000001,95.439,541.143,538.443,0.0
